CCSDS_OMM_VERS = 2.0
CREATION_DATE  = 
ORIGINATOR     = 

OBJECT_NAME    = STARLINK-35551
OBJECT_ID      = 2025-243Z
CENTER_NAME    = EARTH
REF_FRAME      = TEME
TIME_SYSTEM    = UTC
MEAN_ELEMENT_THEORY = SGP/SGP4

EPOCH          = 2025-11-06T21:46:39.734976
MEAN_MOTION    = 15.78865137
ECCENTRICITY   = .0000715
INCLINATION    = 53.1524
RA_OF_ASC_NODE = 99.9844
ARG_OF_PERICENTER = 25.2176
MEAN_ANOMALY   = 334.8881

EPHEMERIS_TYPE = 0
CLASSIFICATION_TYPE = U
NORAD_CAT_ID   = 66200
ELEMENT_SET_NO = 999
REV_AT_EPOCH   = 179
BSTAR          = -.80287E-3
MEAN_MOTION_DOT = -.142868E-2
MEAN_MOTION_DDOT = 0

CCSDS_OMM_VERS = 2.0
CREATION_DATE  = 
ORIGINATOR     = 

OBJECT_NAME    = STARLINK-35543
OBJECT_ID      = 2025-243AA
CENTER_NAME    = EARTH
REF_FRAME      = TEME
TIME_SYSTEM    = UTC
MEAN_ELEMENT_THEORY = SGP/SGP4

EPOCH          = 2025-11-06T23:18:27.189792
MEAN_MOTION    = 15.78637271
ECCENTRICITY   = .0003956
INCLINATION    = 53.1528
RA_OF_ASC_NODE = 99.6704
ARG_OF_PERICENTER = 41.9452
MEAN_ANOMALY   = 318.1872

EPHEMERIS_TYPE = 0
CLASSIFICATION_TYPE = U
NORAD_CAT_ID   = 66201
ELEMENT_SET_NO = 999
REV_AT_EPOCH   = 180
BSTAR          = -.89521E-3
MEAN_MOTION_DOT = -.157448E-2
MEAN_MOTION_DDOT = 0

CCSDS_OMM_VERS = 2.0
CREATION_DATE  = 
ORIGINATOR     = 

OBJECT_NAME    = STARLINK-35534
OBJECT_ID      = 2025-243AB
CENTER_NAME    = EARTH
REF_FRAME      = TEME
TIME_SYSTEM    = UTC
MEAN_ELEMENT_THEORY = SGP/SGP4

EPOCH          = 2025-11-06T08:07:03.289728
MEAN_MOTION    = 15.82301986
ECCENTRICITY   = .00085957
INCLINATION    = 53.1524
RA_OF_ASC_NODE = 102.8358
ARG_OF_PERICENTER = 242.6115
MEAN_ANOMALY   = 117.4034

EPHEMERIS_TYPE = 0
CLASSIFICATION_TYPE = U
NORAD_CAT_ID   = 66202
ELEMENT_SET_NO = 999
REV_AT_EPOCH   = 170
BSTAR          = .23744423E-2
MEAN_MOTION_DOT = .532735E-2
MEAN_MOTION_DDOT = 0

CCSDS_OMM_VERS = 2.0
CREATION_DATE  = 
ORIGINATOR     = 

OBJECT_NAME    = STARLINK-35548
OBJECT_ID      = 2025-243AC
CENTER_NAME    = EARTH
REF_FRAME      = TEME
TIME_SYSTEM    = UTC
MEAN_ELEMENT_THEORY = SGP/SGP4

EPOCH          = 2025-11-06T21:48:15.480864
MEAN_MOTION    = 15.78911480
ECCENTRICITY   = .0001539
INCLINATION    = 53.1526
RA_OF_ASC_NODE = 99.9924
ARG_OF_PERICENTER = 221.0948
MEAN_ANOMALY   = 138.9958

EPHEMERIS_TYPE = 0
CLASSIFICATION_TYPE = U
NORAD_CAT_ID   = 66203
ELEMENT_SET_NO = 999
REV_AT_EPOCH   = 179
BSTAR          = -.18061E-2
MEAN_MOTION_DOT = -.314951E-2
MEAN_MOTION_DDOT = 0

CCSDS_OMM_VERS = 2.0
CREATION_DATE  = 
ORIGINATOR     = 

OBJECT_NAME    = STARLINK-35490
OBJECT_ID      = 2025-243AD
CENTER_NAME    = EARTH
REF_FRAME      = TEME
TIME_SYSTEM    = UTC
MEAN_ELEMENT_THEORY = SGP/SGP4

EPOCH          = 2025-11-06T23:20:31.102080
MEAN_MOTION    = 15.78499433
ECCENTRICITY   = .0000172
INCLINATION    = 53.1527
RA_OF_ASC_NODE = 99.6813
ARG_OF_PERICENTER = 329.7014
MEAN_ANOMALY   = 30.3997

EPHEMERIS_TYPE = 0
CLASSIFICATION_TYPE = U
NORAD_CAT_ID   = 66204
ELEMENT_SET_NO = 999
REV_AT_EPOCH   = 180
BSTAR          = -.26371E-2
MEAN_MOTION_DOT = -.444283E-2
MEAN_MOTION_DDOT = 0

CCSDS_OMM_VERS = 2.0
CREATION_DATE  = 
ORIGINATOR     = 

OBJECT_NAME    = GRAVITY-1 R/B
OBJECT_ID      = 2025-226E
CENTER_NAME    = EARTH
REF_FRAME      = TEME
TIME_SYSTEM    = UTC
MEAN_ELEMENT_THEORY = SGP/SGP4

EPOCH          = 2025-11-07T03:23:33.035712
MEAN_MOTION    = 15.54056792
ECCENTRICITY   = .0160216
INCLINATION    = 97.7927
RA_OF_ASC_NODE = 27.7145
ARG_OF_PERICENTER = 301.2152
MEAN_ANOMALY   = 57.3482

EPHEMERIS_TYPE = 0
CLASSIFICATION_TYPE = U
NORAD_CAT_ID   = 66205
ELEMENT_SET_NO = 999
REV_AT_EPOCH   = 194
BSTAR          = .35451E-3
MEAN_MOTION_DOT = .40045E-3
MEAN_MOTION_DDOT = .27865E-5

CCSDS_OMM_VERS = 2.0
CREATION_DATE  = 
ORIGINATOR     = 

OBJECT_NAME    = STARLINK-35748
OBJECT_ID      = 2025-244A
CENTER_NAME    = EARTH
REF_FRAME      = TEME
TIME_SYSTEM    = UTC
MEAN_ELEMENT_THEORY = SGP/SGP4

EPOCH          = 2025-11-07T04:00:03.000096
MEAN_MOTION    = 15.83434567
ECCENTRICITY   = .0000637
INCLINATION    = 53.1543
RA_OF_ASC_NODE = 85.8944
ARG_OF_PERICENTER = 75.6015
MEAN_ANOMALY   = 310.6483

EPHEMERIS_TYPE = 0
CLASSIFICATION_TYPE = U
NORAD_CAT_ID   = 66206
ELEMENT_SET_NO = 999
REV_AT_EPOCH   = 254
BSTAR          = -.61377E-2
MEAN_MOTION_DOT = -.1213847E-1
MEAN_MOTION_DDOT = 0

CCSDS_OMM_VERS = 2.0
CREATION_DATE  = 
ORIGINATOR     = 

OBJECT_NAME    = STARLINK-35747
OBJECT_ID      = 2025-244B
CENTER_NAME    = EARTH
REF_FRAME      = TEME
TIME_SYSTEM    = UTC
MEAN_ELEMENT_THEORY = SGP/SGP4

EPOCH          = 2025-11-07T04:00:03.000096
MEAN_MOTION    = 15.83469651
ECCENTRICITY   = .0000763
INCLINATION    = 53.1542
RA_OF_ASC_NODE = 85.8909
ARG_OF_PERICENTER = 66.0708
MEAN_ANOMALY   = 321.7708

EPHEMERIS_TYPE = 0
CLASSIFICATION_TYPE = U
NORAD_CAT_ID   = 66207
ELEMENT_SET_NO = 999
REV_AT_EPOCH   = 254
BSTAR          = -.61451E-2
MEAN_MOTION_DOT = -.1217023E-1
MEAN_MOTION_DDOT = 0

CCSDS_OMM_VERS = 2.0
CREATION_DATE  = 
ORIGINATOR     = 

OBJECT_NAME    = STARLINK-35751
OBJECT_ID      = 2025-244C
CENTER_NAME    = EARTH
REF_FRAME      = TEME
TIME_SYSTEM    = UTC
MEAN_ELEMENT_THEORY = SGP/SGP4

EPOCH          = 2025-11-07T04:00:03.000096
MEAN_MOTION    = 15.83476456
ECCENTRICITY   = .0000634
INCLINATION    = 53.1541
RA_OF_ASC_NODE = 85.8860
ARG_OF_PERICENTER = 61.7598
MEAN_ANOMALY   = 328.4969

EPHEMERIS_TYPE = 0
CLASSIFICATION_TYPE = U
NORAD_CAT_ID   = 66208
ELEMENT_SET_NO = 999
REV_AT_EPOCH   = 265
BSTAR          = -.62336E-2
MEAN_MOTION_DOT = -.1232861E-1
MEAN_MOTION_DDOT = 0

CCSDS_OMM_VERS = 2.0
CREATION_DATE  = 
ORIGINATOR     = 

OBJECT_NAME    = STARLINK-35750
OBJECT_ID      = 2025-244D
CENTER_NAME    = EARTH
REF_FRAME      = TEME
TIME_SYSTEM    = UTC
MEAN_ELEMENT_THEORY = SGP/SGP4

EPOCH          = 2025-11-07T04:00:03.000096
MEAN_MOTION    = 15.83500729
ECCENTRICITY   = .0000576
INCLINATION    = 53.1539
RA_OF_ASC_NODE = 85.8762
ARG_OF_PERICENTER = 80.7449
MEAN_ANOMALY   = 314.1107

EPHEMERIS_TYPE = 0
CLASSIFICATION_TYPE = U
NORAD_CAT_ID   = 66209
ELEMENT_SET_NO = 999
REV_AT_EPOCH   = 262
BSTAR          = -.64824E-2
MEAN_MOTION_DOT = -.1277541E-1
MEAN_MOTION_DDOT = 0

CCSDS_OMM_VERS = 2.0
CREATION_DATE  = 
ORIGINATOR     = 

OBJECT_NAME    = STARLINK-35740
OBJECT_ID      = 2025-244E
CENTER_NAME    = EARTH
REF_FRAME      = TEME
TIME_SYSTEM    = UTC
MEAN_ELEMENT_THEORY = SGP/SGP4

EPOCH          = 2025-11-07T04:00:03.000096
MEAN_MOTION    = 15.83485783
ECCENTRICITY   = .0000565
INCLINATION    = 53.1540
RA_OF_ASC_NODE = 85.8805
ARG_OF_PERICENTER = 66.9171
MEAN_ANOMALY   = 325.8330

EPHEMERIS_TYPE = 0
CLASSIFICATION_TYPE = U
NORAD_CAT_ID   = 66210
ELEMENT_SET_NO = 999
REV_AT_EPOCH   = 249
BSTAR          = -.64147E-2
MEAN_MOTION_DOT = -.1264949E-1
MEAN_MOTION_DDOT = 0

CCSDS_OMM_VERS = 2.0
CREATION_DATE  = 
ORIGINATOR     = 

OBJECT_NAME    = STARLINK-35723
OBJECT_ID      = 2025-244F
CENTER_NAME    = EARTH
REF_FRAME      = TEME
TIME_SYSTEM    = UTC
MEAN_ELEMENT_THEORY = SGP/SGP4

EPOCH          = 2025-11-07T04:00:03.000096
MEAN_MOTION    = 15.83522157
ECCENTRICITY   = .0000716
INCLINATION    = 53.1542
RA_OF_ASC_NODE = 85.8718
ARG_OF_PERICENTER = 69.3204
MEAN_ANOMALY   = 327.4748

EPHEMERIS_TYPE = 0
CLASSIFICATION_TYPE = U
NORAD_CAT_ID   = 66211
ELEMENT_SET_NO = 999
REV_AT_EPOCH   = 254
BSTAR          = -.65237E-2
MEAN_MOTION_DOT = -.1285956E-1
MEAN_MOTION_DDOT = 0

