STARLINK-35551          
1 66200U 25243Z   25310.90740434 -.00142868  00000+0 -80287-3 0  9990
2 66200  53.1524  99.9844 0000715  25.2176 334.8881 15.78865137  1798
STARLINK-35543          
1 66201U 25243AA  25310.97114803 -.00157448  00000+0 -89521-3 0  9993
2 66201  53.1528  99.6704 0003956  41.9452 318.1872 15.78637271  1800
STARLINK-35534          
1 66202U 25243AB  25310.33823252  .00532735  00000+0  23744-2 0  9997
2 66202  53.1524 102.8358 0008595 242.6115 117.4034 15.82301986  1704
STARLINK-35548          
1 66203U 25243AC  25310.90851251 -.00314951  00000+0 -18061-2 0  9997
2 66203  53.1526  99.9924 0001539 221.0948 138.9958 15.78911480  1791
STARLINK-35490          
1 66204U 25243AD  25310.97258220 -.00444283  00000+0 -26371-2 0  9997
2 66204  53.1527  99.6813 0000172 329.7014  30.3997 15.78499433  1808
GRAVITY-1 R/B           
1 66205U 25226E   25311.14135458  .00040045  27865-5  35451-3 0  9996
2 66205  97.7927  27.7145 0160216 301.2152  57.3482 15.54056792  1945
STARLINK-35748          
1 66206U 25244A   25311.16670139 -.01213847  00000+0 -61377-2 0  9995
2 66206  53.1543  85.8944 0000637  75.6015 310.6483 15.83434567  2543
STARLINK-35747          
1 66207U 25244B   25311.16670139 -.01217023  00000+0 -61451-2 0  9999
2 66207  53.1542  85.8909 0000763  66.0708 321.7708 15.83469651  2542
STARLINK-35751          
1 66208U 25244C   25311.16670139 -.01232861  00000+0 -62336-2 0  9990
2 66208  53.1541  85.8860 0000634  61.7598 328.4969 15.83476456  2650
STARLINK-35750          
1 66209U 25244D   25311.16670139 -.01277541  00000+0 -64824-2 0  9999
2 66209  53.1539  85.8762 0000576  80.7449 314.1107 15.83500729  2624
STARLINK-35740          
1 66210U 25244E   25311.16670139 -.01264949  00000+0 -64147-2 0  9997
2 66210  53.1540  85.8805 0000565  66.9171 325.8330 15.83485783  2496
STARLINK-35723          
1 66211U 25244F   25311.16670139 -.01285956  00000+0 -65237-2 0  9990
2 66211  53.1542  85.8718 0000716  69.3204 327.4748 15.83522157  2548
